CELTEE 1                
1 41850U 16067C   18070.22225285 -.00000206  00000-0 -12672-4 0  9994
2 41850  97.9262 157.1454 0009819 126.0527 234.1605 14.96754950 72440
OPTICUBE 04             
1 41851U 16067D   18069.77740599  .00000488  00000-0  48156-4 0  9999
2 41851  97.9261 156.6341 0010233 128.4639 231.7502 14.96627125 72375
AEROCUBE 8D             
1 41852U 16067E   18070.20306000  .00000087  00000-0  13055-4 0  9990
2 41852  97.9281 156.9216 0010941 125.9232 234.3005 14.96430507 72428
AEROCUBE 8C             
1 41853U 16067F   18070.21485944 -.00000301  00000-0 -21198-4 0  9995
2 41853  97.9277 156.9031 0011090 127.8868 232.3357 14.96391483 72428
PROMETHEUS 2-1          
1 41854U 16067G   18070.22706832  .00000189  00000-0  22014-4 0  9999
2 41854  97.9277 156.9034 0011474 128.9386 231.2859 14.96457279 72426
PROMETHEUS 2-3          
1 41855U 16067H   18070.22953509  .00000268  00000-0  28945-4 0  9992
2 41855  97.9278 156.9081 0011680 129.4500 230.7756 14.96454411 72428
ITF-2                   
1 41932U 98067KU  18070.17148782  .00024384  00000-0  19990-3 0  9995
2 41932  51.6371 123.6930 0002520 176.2272 183.8745 15.70344580 65334
WASEDA-SAT3             
1 41933U 98067KV  18069.62137532  .00042368  00000-0  29933-3 0  9995
2 41933  51.6335 122.9227 0001677 175.3431 184.7584 15.73581976 65296
AOBA-VELOX 3            
1 41935U 98067KX  18070.18069586  .00031115  00000-0  23261-3 0  9999
2 41935  51.6363 121.4703 0001626 172.1387 187.9637 15.72406797 65460
INS-1B                  
1 41954U 17008G   18070.21904184  .00001178  00000-0  53527-4 0  9997
2 41954  97.4579 134.9660 0008904 347.0016  13.0989 15.22710656 59095
BGUSAT                  
1 41999U 17008BD  18069.89454678  .00002183  00000-0  92741-4 0  9994
2 41999  97.4619 135.4214 0008413   8.5883 351.5496 15.24119140 58451
DIDO-2                  
1 42000U 17008BE  18069.91231415  .00000815  00000-0  37676-4 0  9999
2 42000  97.4598 135.0364 0008755   8.3014 351.8366 15.22975730 58447
PEASSS                  
1 42015U 17008BV  18069.94161600  .00001126  00000-0  49821-4 0  9997
2 42015  97.4593 135.4096 0006898  19.1655 340.9840 15.23735475 58954
AL-FARABI 1             
1 42016U 17008BW  18069.89307136  .00001311  00000-0  56931-4 0  9994
2 42016  97.4599 135.4927 0006764  19.9727 340.1774 15.24081275 59079
NAYIF-1 (EO-88)         
1 42017U 17008BX  18069.88880106  .00001350  00000-0  58514-4 0  9999
2 42017  97.4598 135.4940 0006770  20.2733 339.8771 15.24102981 59095
HAVELSAT                
1 42700U 98067LH  18069.59212368  .00024373  00000-0  23785-3 0  9990
2 42700  51.6368 137.0640 0003443 251.9653 108.0968 15.66053616 46540
SGSAT                   
1 42703U 98067LL  18070.14718999  .00115152  00000-0  56006-3 0  9995
2 42703  51.6329 123.3803 0002927  26.3155 333.7996 15.81558699 46687
CXBN-2                  
1 42704U 98067LM  18070.22701279  .00023575  00000-0  23367-3 0  9999
2 42704  51.6371 134.5635 0000810 130.4081 229.6985 15.65687507 46556
ICECUBE                 
1 42705U 98067LN  18070.19676393  .00039779  00000-0  32964-3 0  9990
2 42705  51.6408 131.4108 0000919 120.2356 239.8732 15.69817568 46651
PHOENIX                 
1 42706U 98067LP  18069.65269012  .00019889  00000-0  20273-3 0  9996
2 42706  51.6365 137.4721 0000262 109.6217 250.4807 15.65098979 46452
X-CUBESAT               
1 42707U 98067LQ  18070.17092922  .00024674  00000-0  23877-3 0  9991
2 42707  51.6342 134.1458 0000276  53.0569 307.0452 15.66259071 46533
QBEE50-LTU-OC           
1 42708U 98067LR  18070.20326028  .00021906  00000-0  21665-3 0  9991
2 42708  51.6367 134.3828 0000208  78.2061 281.8958 15.65792060 46499
ALTAIR PATHFINDER       
1 42711U 98067LS  18070.18307892  .00013046  00000-0  15388-3 0  9991
2 42711  51.6368 138.7613 0003249 163.8730 196.2368 15.61718559 46149
SHARC                   
1 42712U 98067LT  18070.20040435  .00011393  00000-0  14083-3 0  9996
2 42712  51.6387 139.6631 0001667 165.8949 194.2091 15.60640974 46377
ZA-AEROSAT              
1 42713U 98067LU  18069.66886698  .00019626  00000-0  20902-3 0  9998
2 42713  51.6358 139.0722 0001436 136.4441 223.6668 15.63994180 46096
LINK                    
1 42714U 98067LV  18070.15914137  .00039176  00000-0  32337-3 0  9992
2 42714  51.6326 131.7863 0000958  87.4749 272.6358 15.69919807 46348
CSUNSAT 1               
1 42715U 98067LW  18070.22648621  .00019225  00000-0  20224-3 0  9998
2 42715  51.6371 136.0564 0002991 151.7753 208.3404 15.64323640 46183
SPACECUBE               
1 42717U 98067LY  18070.22630533  .00023041  00000-0  22824-3 0  9992
2 42717  51.6354 134.5369 0002209 263.4023  96.6722 15.65716731 45576
HOOPOE                  
1 42718U 98067LZ  18070.18973267  .00024607  00000-0  23065-3 0  9999
2 42718  51.6365 133.5461 0001949 267.3613  92.7160 15.67056720 45580
CHALLENGER              
1 42721U 98067MA  18069.62182769  .00060026  00000-0  44532-3 0  9996
2 42721  51.6335 132.6967 0002695 247.5647 112.5066 15.72282206 45243
NJUST-1                 
1 42722U 98067MB  18070.18896547  .00017595  00000-0  19290-3 0  9992
2 42722  51.6369 137.3031 0004844 226.5832 133.4759 15.63330033 45238
UNSW-ECO                
1 42723U 98067MC  18070.21905597  .00027209  00000-0  25188-3 0  9999
2 42723  51.6378 133.7577 0003653 232.1465 127.9201 15.67300436 45267
LILACSAT-1              
1 42725U 98067ME  18070.22555320  .00022150  00000-0  22815-3 0  9991
2 42725  51.6369 136.0479 0003657 232.0922 127.9742 15.64753975 45152
NSIGHT-1                
1 42726U 98067MF  18070.22148598  .00007549  00000-0  98371-4 0  9993
2 42726  51.6389 140.5485 0004888 227.7331 132.3248 15.59831137 45101
SNUSAT-1                
1 42727U 98067MG  18070.10345101  .00022112  00000-0  22844-3 0  9994
2 42727  51.6352 136.6982 0005220 183.1426 176.9537 15.64673082 45105
I-INSPIRE II            
1 42731U 98067ML  18070.18090205  .00028293  00000-0  25651-3 0  9994
2 42731  51.6357 133.4587 0003950 163.7105 196.4019 15.67791513 45045
POLYITAN-2-SAU          
1 42732U 98067MM  18069.65479878  .00028866  00000-0  28019-3 0  9999
2 42732  51.6359 137.4611 0004470 162.1003 198.0151 15.66081533 44944
SNUSAT-1B               
1 42733U 98067MN  18070.17632122  .00022461  00000-0  22736-3 0  9997
2 42733  51.6362 135.7010 0004733 169.0332 191.0767 15.65181452 45011
EXALTA-1                
1 42734U 98067MP  18070.18531204  .00030979  00000-0  27947-3 0  9990
2 42734  51.6343 133.4822 0004676 199.7146 160.3670 15.67860279 44997
BEEAGLESAT              
1 42736U 98067MR  18070.17236727  .00019791  00000-0  20705-3 0  9997
2 42736  51.6357 136.4237 0004935 222.6706 137.3906 15.64435212 45060
ATLANTIS                
1 42737U 98067MS  18070.17055794  .00357277  60634-4  96982-3 0  9998
2 42737  51.6229 118.8948 0004951  19.9872 340.1328 15.93656518 45182
UCLSAT                  
1 42765U 17036A   18070.16494670  .00001160  00000-0  54415-4 0  9995
2 42765  97.4136 131.5454 0013383  64.4449 295.8169 15.21569714 39809
LITUANICASAT-2          
1 42768U 17036D   18069.85723910  .00001916  00000-0  89405-4 0  9990
2 42768  97.4148 130.9069 0017164  55.0565 305.2280 15.20927576 39618
AALTO-1                 
1 42775U 17036L   18069.85484327  .00000789  00000-0  39090-4 0  9996
2 42775  97.4132 130.8920 0015575  53.1931 307.0730 15.20556263 39558
URSA MAIOR              
1 42776U 17036M   18070.17507238  .00000799  00000-0  39464-4 0  9997
2 42776  97.4137 131.2394 0015410  52.5303 307.7332 15.20623245 39604
COMPASS 2               
1 42777U 17036N   18070.15458901  .00001457  00000-0  67967-4 0  9999
2 42777  97.4155 131.4590 0014399  56.5830 303.6781 15.21369975 39600
DIAMOND RED             
1 42783U 17036U   18069.74531905  .00000979  00000-0  46844-4 0  9994
2 42783  97.4138 131.0419 0013991  65.3963 294.8729 15.21234704 39543
PEGASUS                 
1 42784U 17036V   18069.73017849  .00001097  00000-0  51913-4 0  9995
2 42784  97.4140 131.0665 0013935  65.5751 294.6937 15.21395306 39540
DIAMOND GREEN           
1 42785U 17036W   18070.20486693  .00000753  00000-0  36773-4 0  9992
2 42785  97.4140 131.5043 0013864  64.5273 295.7396 15.21236480 39600
DIAMOND BLUE            
1 42786U 17036X   18070.13820020  .00000699  00000-0  34339-4 0  9996
2 42786  97.4139 131.4392 0013710  65.0975 295.1684 15.21232536 39590
NUDTSAT                 
1 42787U 17036Y   18069.94498274  .00001589  00000-0  72806-4 0  9996
2 42787  97.4144 131.3946 0013489  65.2154 295.0484 15.21854287 39427
SUCHAI                  
1 42788U 17036Z   18070.16369570  .00001260  00000-0  58770-4 0  9999
2 42788  97.4140 131.5539 0013523  64.4069 295.8563 15.21619441 39684
SKCUBE                  
1 42789U 17036AA  18069.89829863  .00001159  00000-0  54361-4 0  9993
2 42789  97.4138 131.2938 0013387  65.2892 294.9736 15.21602022 39569
VZLUSAT-1               
1 42790U 17036AB  18069.87015347  .00001600  00000-0  73254-4 0  9990
2 42790  97.4140 131.3291 0013054  65.9382 294.3219 15.21883217 39566
ROBUSTA-1B              
1 42792U 17036AD  18069.74443218  .00001234  00000-0  57427-4 0  9997
2 42792  97.4137 131.1857 0012978  66.9130 293.3473 15.21740008 39556
CICERO 6                
1 42793U 17036AE  18069.92868750  .00000737  00000-0  35616-4 0  9993
2 42793  97.4131 131.3884 0012130  67.3791 292.8727 15.21676090 39657
D-SAT                   
1 42794U 17036AF  18069.71551143  .00000287  00000-0  30908-4 0  9995
2 42794  97.6052 128.0279 0125829 249.6157 109.1510 14.90794605 39056
TOKI                    
1 42820U 98067MU  18070.18806673  .00019864  00000-0  21484-3 0  9991
2 42820  51.6361 138.0320 0002157 132.8867 227.2309 15.63590596 38507
MAZAALAI (NUMSAT-1)     
1 42822U 98067MW  18069.63170953  .00019880  00000-0  21679-3 0  9990
2 42822  51.6362 141.0692 0002110 138.4009 221.7146 15.63378628 38413
